[{"OBJECT_NAME":"STARLINK-34559","OBJECT_ID":"2025-142L","EPOCH":"2026-03-09T23:08:56.101344","MEAN_MOTION":14.98334778,"ECCENTRICITY":0.00026186,"INCLINATION":70.0015,"RA_OF_ASC_NODE":313.6977,"ARG_OF_PERICENTER":262.6555,"MEAN_ANOMALY":97.4306,"EPHEMERIS_TYPE":0,"CLASSIFICATION_TYPE":"U","NORAD_CAT_ID":64706,"ELEMENT_SET_NO":999,"REV_AT_EPOCH":3953,"BSTAR":0.00037743117,"MEAN_MOTION_DOT":4.414e-5,"MEAN_MOTION_DDOT":0},{"OBJECT_NAME":"UNKNOWN","OBJECT_ID":"","EPOCH":"2026-03-07T15:14:41.564256","MEAN_MOTION":13.5413212,"ECCENTRICITY":0.0691594,"INCLINATION":65.6692,"RA_OF_ASC_NODE":150.3342,"ARG_OF_PERICENTER":189.8468,"MEAN_ANOMALY":168.843,"EPHEMERIS_TYPE":0,"CLASSIFICATION_TYPE":"U","NORAD_CAT_ID":87553,"ELEMENT_SET_NO":999,"REV_AT_EPOCH":60274,"BSTAR":0.0016336,"MEAN_MOTION_DOT":5.279e-5,"MEAN_MOTION_DDOT":0}]
